0 FENGYUN 1C DEB
1 30409U 99025ADY 13281.50205212  .00000299  00000-0  21404-3 0   796
2 30409 098.5244 136.7261 0176128 213.4017 217.2931 13.96772975342379
0 FENGYUN 1C DEB
1 30409U 99025ADY 13282.57336903  .00000364  00000-0  25516-3 0   809
2 30409 098.5242 137.7203 0176140 210.3904 204.3112 13.96774934342521
0 FENGYUN 1C DEB
1 30409U 99025ADY 13283.80669596  .00000495  00000-0  33821-3 0   817
2 30409 098.5239 138.8647 0176175 206.9269 285.9859 13.96775563342694
0 FENGYUN 1C DEB
1 30409U 99025ADY 13285.16094137  .00000595  00000-0  40101-3 0   822
2 30409 098.5237 140.1213 0176195 203.1189 255.6982 13.96775490342880
0 FENGYUN 1C DEB
1 30409U 99025ADY 13286.16384338  .00000733  00000-0  48813-3 0   831
2 30409 098.5235 141.0519 0176207 200.3033 258.7064 13.96775981343025
0 FENGYUN 1C DEB
1 30409U 99025ADY 13287.17231414  .00000905  00000-0  59628-3 0   847
2 30409 098.5233 141.9877 0176238 197.4756 289.7159 13.96776507343160
0 FENGYUN 1C DEB
1 30409U 99025ADY 13288.17506806  .00001190  00000-0  77675-3 0   858
2 30409 098.5232 142.9180 0176263 194.6655 291.9785 13.96778853343304
0 FENGYUN 1C DEB
1 30409U 99025ADY 13289.17713208  .00001125  00000-0  73506-3 0   863
2 30409 098.5232 143.8477 0176309 191.8614 290.7747 13.96780689343448
0 FENGYUN 1C DEB
1 30409U 99025ADY 13290.52685444  .00001166  00000-0  76122-3 0   877
2 30409 098.5232 145.0999 0176337 188.0826 237.7533 13.96783081343639
0 FENGYUN 1C DEB
1 30409U 99025ADY 13291.60091150  .00001171  00000-0  76419-3 0   888
2 30409 098.5233 146.0963 0176369 185.0840 238.5689 13.96785260343788
0 FENGYUN 1C DEB
1 30409U 99025ADY 13292.83308919  .00001154  00000-0  75298-3 0   894
2 30409 098.5234 147.2395 0176403 181.6524 314.4835 13.96788557343959
0 FENGYUN 1C DEB
1 30409U 99025ADY 13294.19214013  .00000990  00000-0  64956-3 0   904
2 30409 098.5235 148.5003 0176478 177.8690 308.3812 13.96793127344141
0 FENGYUN 1C DEB
1 30409U 99025ADY 13295.19544047  .00000927  00000-0  60985-3 0   917
2 30409 098.5236 149.4311 0176505 175.0742 313.4254 13.96795991344286
